start=new Date('2021-12-30T00:00:00.000Z').valueOf();
sats=[{"SEMIMAJOR_AXIS":"6925.349","INCLINATION":"53.0541","APOAPSIS":"548.787","CLASSIFICATION_TYPE":"U","OBJECT_ID":"2020-006AY","TLE_LINE1":"1 45090U 20006AY  21363.92882688  .00001187  00000-0  98587-4 0  9990","MEAN_ELEMENT_THEORY":"SGP4","PERIOD":"95.592","REV_AT_EPOCH":"10630","BSTAR":"0.00009858700000","CENTER_NAME":"EARTH","LAUNCH_DATE":"2020-01-29","SITE":"AFETR","RA_OF_ASC_NODE":"278.4713","OBJECT_TYPE":"PAYLOAD","REF_FRAME":"TEME","TLE_LINE2":"2 45090  53.0541 278.4713 0002271  52.7714 307.3482 15.06399931106301","FILE":"3255236","PERIAPSIS":"545.641","ECCENTRICITY":"0.00022710","GP_ID":"192741775","EPOCH":"2021-12-29T22:17:30.642432","OBJECT_NAME":"STARLINK-1176","MEAN_ANOMALY":"307.3482","DECAY_DATE":null,"ARG_OF_PERICENTER":"52.7714","NORAD_CAT_ID":"45090","RCS_SIZE":"LARGE","TIME_SYSTEM":"UTC","MEAN_MOTION_DOT":"0.00001187","EPHEMERIS_TYPE":"0","MEAN_MOTION":"15.06399931","COUNTRY_CODE":"US","ELEMENT_SET_NO":"999","MEAN_MOTION_DDOT":"0.0000000000000"},{"OBJECT_NAME":"STARLINK-1137","MEAN_ANOMALY":"295.4958","DECAY_DATE":null,"ARG_OF_PERICENTER":"64.6216","RCS_SIZE":"LARGE","NORAD_CAT_ID":"45092","TIME_SYSTEM":"UTC","MEAN_MOTION_DOT":"-0.00001129","MEAN_MOTION":"15.06396709","EPHEMERIS_TYPE":"0","ELEMENT_SET_NO":"999","COUNTRY_CODE":"US","MEAN_MOTION_DDOT":"0.0000000000000","OBJECT_TYPE":"PAYLOAD","REF_FRAME":"TEME","TLE_LINE2":"2 45092  53.0542 278.5937 0001791  64.6216 295.4958 15.06396709106291","FILE":"3255236","PERIAPSIS":"545.983","ECCENTRICITY":"0.00017910","EPOCH":"2021-12-29T21:40:21.147456","GP_ID":"192742524","OBJECT_ID":"2020-006BA","TLE_LINE1":"1 45092U 20006BA  21363.90302254 -.00001129  00000-0 -56934-4 0  9994","MEAN_ELEMENT_THEORY":"SGP4","PERIOD":"95.592","REV_AT_EPOCH":"10629","CENTER_NAME":"EARTH","BSTAR":"-0.00005693400000","LAUNCH_DATE":"2020-01-29","SITE":"AFETR","RA_OF_ASC_NODE":"278.5937","SEMIMAJOR_AXIS":"6925.359","INCLINATION":"53.0542","APOAPSIS":"548.464","CLASSIFICATION_TYPE":"U"},{"MEAN_MOTION_DDOT":"0.0000000000000","ELEMENT_SET_NO":"999","COUNTRY_CODE":"US","TIME_SYSTEM":"UTC","MEAN_MOTION_DOT":"0.00002309","EPHEMERIS_TYPE":"0","MEAN_MOTION":"15.06404572","NORAD_CAT_ID":"45093","RCS_SIZE":"LARGE","DECAY_DATE":null,"ARG_OF_PERICENTER":"58.4477","MEAN_ANOMALY":"301.6681","OBJECT_NAME":"STARLINK-1142","GP_ID":"192742776","EPOCH":"2021-12-29T21:35:02.702112","ECCENTRICITY":"0.00017380","PERIAPSIS":"545.996","FILE":"3255236","TLE_LINE2":"2 45093  53.0542 278.6054 0001738  58.4477 301.6681 15.06404572106295","REF_FRAME":"TEME","OBJECT_TYPE":"PAYLOAD","RA_OF_ASC_NODE":"278.6054","LAUNCH_DATE":"2020-01-29","SITE":"AFETR","BSTAR":"0.00017384000000","CENTER_NAME":"EARTH","MEAN_ELEMENT_THEORY":"SGP4","REV_AT_EPOCH":"10629","PERIOD":"95.592","OBJECT_ID":"2020-006BB","TLE_LINE1":"1 45093U 20006BB  21363.89933683  .00002309  00000-0  17384-3 0  9993","CLASSIFICATION_TYPE":"U","APOAPSIS":"548.403","SEMIMAJOR_AXIS":"6925.335","INCLINATION":"53.0542"},{"CENTER_NAME":"EARTH","BSTAR":"0.00028895000000","OBJECT_ID":"2020-006BC","TLE_LINE1":"1 45094U 20006BC  21363.25060983  .00004026  00000-0  28895-3 0  9995","MEAN_ELEMENT_THEORY":"SGP4","PERIOD":"95.591","REV_AT_EPOCH":"10620","RA_OF_ASC_NODE":"281.5101","SITE":"AFETR","LAUNCH_DATE":"2020-01-29","APOAPSIS":"548.518","CLASSIFICATION_TYPE":"U","SEMIMAJOR_AXIS":"6925.314","INCLINATION":"53.0557","MEAN_ANOMALY":"303.1477","DECAY_DATE":null,"ARG_OF_PERICENTER":"56.9698","OBJECT_NAME":"STARLINK-1146","COUNTRY_CODE":"US","ELEMENT_SET_NO":"999","MEAN_MOTION_DDOT":"0.0000000000000","RCS_SIZE":"LARGE","NORAD_CAT_ID":"45094","TIME_SYSTEM":"UTC","MEAN_MOTION_DOT":"0.00004026","MEAN_MOTION":"15.06411320","EPHEMERIS_TYPE":"0","FILE":"3254971","TLE_LINE2":"2 45094  53.0557 281.5101 0001933  56.9698 303.1477 15.06411320106203","OBJECT_TYPE":"PAYLOAD","REF_FRAME":"TEME","ECCENTRICITY":"0.00019330","GP_ID":"192712487","EPOCH":"2021-12-29T06:00:52.689312","PERIAPSIS":"545.840"},{"APOAPSIS":"548.585","CLASSIFICATION_TYPE":"U","INCLINATION":"53.0549","SEMIMAJOR_AXIS":"6925.338","BSTAR":"0.00009212400000","CENTER_NAME":"EARTH","TLE_LINE1":"1 45095U 20006BD  21363.91776551  .00001091  00000-0  92124-4 0  9990","OBJECT_ID":"2020-006BD","PERIOD":"95.592","REV_AT_EPOCH":"10630","MEAN_ELEMENT_THEORY":"SGP4","RA_OF_ASC_NODE":"278.5298","LAUNCH_DATE":"2020-01-29","SITE":"AFETR","TLE_LINE2":"2 45095  53.0549 278.5298 0001996  59.2106 300.9080 15.06403524106300","FILE":"3255236","OBJECT_TYPE":"PAYLOAD","REF_FRAME":"TEME","ECCENTRICITY":"0.00019960","GP_ID":"192742276","EPOCH":"2021-12-29T22:01:34.940064","PERIAPSIS":"545.820","MEAN_ANOMALY":"300.9080","ARG_OF_PERICENTER":"59.2106","DECAY_DATE":null,"OBJECT_NAME":"STARLINK-1147","COUNTRY_CODE":"US","ELEMENT_SET_NO":"999","MEAN_MOTION_DDOT":"0.0000000000000","RCS_SIZE":"LARGE","NORAD_CAT_ID":"45095","MEAN_MOTION":"15.06403524","EPHEMERIS_TYPE":"0","MEAN_MOTION_DOT":"0.00001091","TIME_SYSTEM":"UTC"},{"RA_OF_ASC_NODE":"278.5678","LAUNCH_DATE":"2020-01-29","SITE":"AFETR","CENTER_NAME":"EARTH","BSTAR":"0.00000337830000","MEAN_ELEMENT_THEORY":"SGP4","REV_AT_EPOCH":"10629","PERIOD":"95.592","OBJECT_ID":"2020-006BE","TLE_LINE1":"1 45096U 20006BE  21363.91039483 -.00000231  00000-0  33783-5 0  9990","CLASSIFICATION_TYPE":"U","APOAPSIS":"548.563","SEMIMAJOR_AXIS":"6925.345","INCLINATION":"53.0553","MEAN_MOTION_DDOT":"0.0000000000000","ELEMENT_SET_NO":"999","COUNTRY_CODE":"US","TIME_SYSTEM":"UTC","MEAN_MOTION_DOT":"-0.00000231","MEAN_MOTION":"15.06401295","EPHEMERIS_TYPE":"0","RCS_SIZE":"LARGE","NORAD_CAT_ID":"45096","DECAY_DATE":null,"ARG_OF_PERICENTER":"61.9165","MEAN_ANOMALY":"298.2021","OBJECT_NAME":"STARLINK-1152","GP_ID":"192743025","EPOCH":"2021-12-29T21:50:58.113312","ECCENTRICITY":"0.00019540","PERIAPSIS":"545.856","FILE":"3255236","TLE_LINE2":"2 45096  53.0553 278.5678 0001954  61.9165 298.2021 15.06401295106292","REF_FRAME":"TEME","OBJECT_TYPE":"PAYLOAD"},{"FILE":"3255236","TLE_LINE2":"2 45098  53.0548 278.6472 0001818  60.8934 299.2237 15.06398857106291","REF_FRAME":"TEME","OBJECT_TYPE":"PAYLOAD","EPOCH":"2021-12-29T21:24:25.849440","GP_ID":"192743277","ECCENTRICITY":"0.00018180","PERIAPSIS":"545.958","DECAY_DATE":null,"ARG_OF_PERICENTER":"60.8934","MEAN_ANOMALY":"299.2237","OBJECT_NAME":"STARLINK-1184","MEAN_MOTION_DDOT":"0.0000000000000","COUNTRY_CODE":"US","ELEMENT_SET_NO":"999","TIME_SYSTEM":"UTC","MEAN_MOTION_DOT":"0.00001206","MEAN_MOTION":"15.06398857","EPHEMERIS_TYPE":"0","NORAD_CAT_ID":"45098","RCS_SIZE":"LARGE","CLASSIFICATION_TYPE":"U","APOAPSIS":"548.476","SEMIMAJOR_AXIS":"6925.352","INCLINATION":"53.0548","CENTER_NAME":"EARTH","BSTAR":"0.00009987600000","MEAN_ELEMENT_THEORY":"SGP4","REV_AT_EPOCH":"10629","PERIOD":"95.592","OBJECT_ID":"2020-006BG","TLE_LINE1":"1 45098U 20006BG  21363.89196585  .00001206  00000-0  99876-4 0  9992","RA_OF_ASC_NODE":"278.6472","SITE":"AFETR","LAUNCH_DATE":"2020-01-29"},{"FILE":"3255236","TLE_LINE2":"2 45099  53.0564 278.4832 0001906  50.6648 309.4510 15.06395392106306","REF_FRAME":"TEME","OBJECT_TYPE":"PAYLOAD","GP_ID":"192742025","EPOCH":"2021-12-29T22:12:12.115008","ECCENTRICITY":"0.00019060","PERIAPSIS":"545.908","DECAY_DATE":null,"ARG_OF_PERICENTER":"50.6648","MEAN_ANOMALY":"309.4510","OBJECT_NAME":"STARLINK-1186","MEAN_MOTION_DDOT":"0.0000000000000","COUNTRY_CODE":"US","ELEMENT_SET_NO":"999","TIME_SYSTEM":"UTC","MEAN_MOTION_DOT":"0.00000280","EPHEMERIS_TYPE":"0","MEAN_MOTION":"15.06395392","RCS_SIZE":"LARGE","NORAD_CAT_ID":"45099","CLASSIFICATION_TYPE":"U","APOAPSIS":"548.548","SEMIMAJOR_AXIS":"6925.363","INCLINATION":"53.0564","BSTAR":"0.00003771200000","CENTER_NAME":"EARTH","MEAN_ELEMENT_THEORY":"SGP4","REV_AT_EPOCH":"10630","PERIOD":"95.592","OBJECT_ID":"2020-006BH","TLE_LINE1":"1 45099U 20006BH  21363.92514022  .00000280  00000-0  37712-4 0  9999","RA_OF_ASC_NODE":"278.4832","LAUNCH_DATE":"2020-01-29","SITE":"AFETR"},{"APOAPSIS":"548.511","CLASSIFICATION_TYPE":"U","INCLINATION":"53.0538","SEMIMAJOR_AXIS":"6925.350","BSTAR":"0.00004753900000","CENTER_NAME":"EARTH","TLE_LINE1":"1 45100U 20006BJ  21363.88828201  .00000426  00000-0  47539-4 0  9994","OBJECT_ID":"2020-006BJ","REV_AT_EPOCH":"10629","PERIOD":"95.592","MEAN_ELEMENT_THEORY":"SGP4","RA_OF_ASC_NODE":"278.6396","SITE":"AFETR","LAUNCH_DATE":"2020-01-29","TLE_LINE2":"2 45100  53.0538 278.6396 0001871  60.3752 299.7423 15.06399503106292","FILE":"3255236","OBJECT_TYPE":"PAYLOAD","REF_FRAME":"TEME","ECCENTRICITY":"0.00018710","GP_ID":"192741776","EPOCH":"2021-12-29T21:19:07.565664","PERIAPSIS":"545.919","MEAN_ANOMALY":"299.7423","ARG_OF_PERICENTER":"60.3752","DECAY_DATE":null,"OBJECT_NAME":"STARLINK-1193","COUNTRY_CODE":"US","ELEMENT_SET_NO":"999","MEAN_MOTION_DDOT":"0.0000000000000","RCS_SIZE":"LARGE","NORAD_CAT_ID":"45100","MEAN_MOTION":"15.06399503","EPHEMERIS_TYPE":"0","TIME_SYSTEM":"UTC","MEAN_MOTION_DOT":"0.00000426"},{"CLASSIFICATION_TYPE":"U","APOAPSIS":"548.487","INCLINATION":"53.0535","SEMIMAJOR_AXIS":"6925.326","BSTAR":"0.00029707000000","CENTER_NAME":"EARTH","REV_AT_EPOCH":"10629","PERIOD":"95.592","MEAN_ELEMENT_THEORY":"SGP4","TLE_LINE1":"1 45101U 20006BK  21363.88459632  .00004147  00000-0  29707-3 0  9993","OBJECT_ID":"2020-006BK","RA_OF_ASC_NODE":"278.6604","LAUNCH_DATE":"2020-01-29","SITE":"AFETR","TLE_LINE2":"2 45101  53.0535 278.6604 0001871  62.8137 297.3043 15.06407337106293","FILE":"3255236","REF_FRAME":"TEME","OBJECT_TYPE":"PAYLOAD","GP_ID":"192742525","EPOCH":"2021-12-29T21:13:49.122048","ECCENTRICITY":"0.00018710","PERIAPSIS":"545.895","ARG_OF_PERICENTER":"62.8137","DECAY_DATE":null,"MEAN_ANOMALY":"297.3043","OBJECT_NAME":"STARLINK-1194","MEAN_MOTION_DDOT":"0.0000000000000","ELEMENT_SET_NO":"999","COUNTRY_CODE":"US","MEAN_MOTION":"15.06407337","EPHEMERIS_TYPE":"0","MEAN_MOTION_DOT":"0.00004147","TIME_SYSTEM":"UTC","RCS_SIZE":"LARGE","NORAD_CAT_ID":"45101"}];
